[
    {
        "CCSDS_OMM_VERS": "3.0",
        "COMMENT": "GENERATED VIA SPACE-TRACK.ORG API",
        "CREATION_DATE": "2025-04-14T03:05:54",
        "ORIGINATOR": "18 SPCS",
        "OBJECT_NAME": "BEIDOU 3 G3",
        "OBJECT_ID": "2020-040A",
        "CENTER_NAME": "EARTH",
        "REF_FRAME": "TEME",
        "TIME_SYSTEM": "UTC",
        "MEAN_ELEMENT_THEORY": "SGP4",
        "EPOCH": "2025-04-13T21:56:16.218240",
        "MEAN_MOTION": "1.00266922",
        "ECCENTRICITY": "0.00031190",
        "INCLINATION": "1.4112",
        "RA_OF_ASC_NODE": "62.3451",
        "ARG_OF_PERICENTER": "329.8055",
        "MEAN_ANOMALY": "249.7056",
        "EPHEMERIS_TYPE": "0",
        "CLASSIFICATION_TYPE": "U",
        "NORAD_CAT_ID": "45807",
        "ELEMENT_SET_NO": "999",
        "REV_AT_EPOCH": "1776",
        "BSTAR": "0.00000000000000",
        "MEAN_MOTION_DOT": "-0.00000345",
        "MEAN_MOTION_DDOT": "0.0000000000000",
        "SEMIMAJOR_AXIS": "42166.095",
        "PERIOD": "1436.167",
        "APOAPSIS": "35801.112",
        "PERIAPSIS": "35774.809",
        "OBJECT_TYPE": "PAYLOAD",
        "RCS_SIZE": "LARGE",
        "COUNTRY_CODE": "PRC",
        "LAUNCH_DATE": "2020-06-23",
        "SITE": "XSC",
        "DECAY_DATE": null,
        "FILE": "4701263",
        "GP_ID": "285540063",
        "TLE_LINE0": "0 BEIDOU 3 G3",
        "TLE_LINE1": "1 45807U 20040A   25103.91407660 -.00000345  00000-0  00000-0 0  9997",
        "TLE_LINE2": "2 45807   1.4112  62.3451 0003119 329.8055 249.7056  1.00266922 17764"
    }
]